QIANFAN-49              
1 62250U 24232P   25353.20980075  .00000102  00000+0  13861-3 0  9991
2 62250  89.0020  40.5838 0014847 169.0544 191.0933 13.50980165 68713
QIANFAN-50              
1 62251U 24232Q   25353.23446739  .00000043  00000+0  48047-4 0  9998
2 62251  89.0026  40.5898 0016446 171.0478 189.0970 13.50976825 68741
QIANFAN-51              
1 62252U 24232R   25353.21803627  .00000086  00000+0  11425-3 0  9996
2 62252  89.0020  40.5849 0013823 173.3715 186.7621 13.50979708 68736
QIANFAN-52              
1 62253U 24232S   25353.24685278  .00000100  00000+0  13618-3 0  9993
2 62253  89.0016  40.4554 0016069 166.9062 193.2509 13.50977869 68826
QIANFAN-53              
1 62254U 24232T   25353.22625377  .00000088  00000+0  11835-3 0  9990
2 62254  89.0023  40.5624 0014924 167.4943 192.6581 13.50980211 68789
QIANFAN-54              
1 62255U 24232U   25353.26741033  .00000094  00000+0  12754-3 0  9991
2 62255  89.0014  40.2362 0002200 161.1818 198.9415 13.50980448100292
QIANFAN-55              
1 62785U 25016A   25353.21938527  .00000150  00000+0  21333-3 0  9997
2 62785  88.9783 102.5416 0016068 333.8325  26.2013 13.50989259 48063
QIANFAN-56              
1 62786U 25016B   25353.23584135  .00000147  00000+0  20923-3 0  9992
2 62786  88.9757 102.3747 0014771 336.7477  23.3004 13.50980431 48116
